ES'HAIL 1               
1 39233U 13044A   22063.52638168  .00000127  00000+0  00000+0 0  9992
2 39233   0.0546 342.7790 0002177   4.4037  30.0423  1.00269619 30935
GSAT-7                  
1 39234U 13044B   22063.53606288 -.00000093  00000+0  00000+0 0  9995
2 39234   0.0438 261.4910 0008241  24.0600 143.6719  1.00272354 29622
AMOS-4                  
1 39237U 13045A   22063.53423132 -.00000008  00000+0  00000+0 0  9990
2 39237   0.0380 261.6760 0003002  86.8367  71.0469  1.00272788 31251
AEHF-3 (USA 246)        
1 39256U 13050A   22063.61408355  .00000120  00000+0  00000+0 0  9990
2 39256   1.4600  69.3938 0053857 189.0850 329.9303  1.00266603 29975
ASTRA 2E                
1 39285U 13056A   22063.52699220  .00000134  00000+0  00000+0 0  9996
2 39285   0.0877 317.7003 0002059  12.9662  49.7828  1.00269171 30732
FM-6                    
1 39360U 13058A   22063.55055560 -.00000032  00000+0  00000+0 0  9996
2 39360   0.0425 268.6027 0000234 324.3382  11.3587  1.00274030 30363
RADUGA-1M 3             
1 39375U 13062A   22063.52830047  .00000141  00000+0  00000+0 0  9995
2 39375   1.9707  91.1301 0003800  87.9454 208.3756  1.00275049 30424
SES-8                   
1 39460U 13071A   22063.39672885 -.00000286  00000+0  00000+0 0  9990
2 39460   0.0516 261.4025 0001753 124.9915  13.5381  1.00272708 28720
INMARSAT 5-F1           
1 39476U 13073A   22063.53379521  .00000012  00000+0  00000+0 0  9992
2 39476   0.0206 138.4661 0000362 111.0226 167.5218  1.00271934 29886
TKSAT-1 (TUPAC KATARI)  
1 39481U 13075A   22063.50387939 -.00000210  00000+0  00000+0 0  9990
2 39481   0.0090 103.4481 0002853 237.4344 275.5338  1.00272404 29893
EXPRESS-AM5             
1 39487U 13077A   22062.59493685 -.00000299  00000+0  00000+0 0  9999
2 39487   0.0230 293.9201 0000653 104.7187 116.8388  1.00268660 30643
GSAT-14                 
1 39498U 14001A   22063.53606288 -.00000093  00000+0  00000+0 0  9991
2 39498   0.0705 267.2558 0004521  20.9990 140.9765  1.00271758 29692
THAICOM 6               
1 39500U 14002A   22063.53693507 -.00000136  00000+0  00000+0 0  9994
2 39500   0.0730 119.3834 0001653 305.7539   8.8964  1.00270101 29755
TDRS 12                 
1 39504U 14004A   22063.51303729 -.00000285  00000+0  00000+0 0  9997
2 39504   3.9534 345.5051 0003056  70.4883 249.8824  1.00265801 28576
ABS-2                   
1 39508U 14006A   22063.53623733 -.00000102  00000+0  00000+0 0  9993
2 39508   0.0539 311.9697 0003809  32.9170  85.3133  1.00271745 29586
ATHENA-FIDUS            
1 39509U 14006B   22063.52882378  .00000138  00000+0  00000+0 0  9993
2 39509   0.0130 142.7692 0001259 230.5173  17.1154  1.00273257 29378
TURKSAT 4A              
1 39522U 14007A   22063.52969596  .00000130  00000+0  00000+0 0  9999
2 39522   0.0753 273.6549 0003939  37.1603  84.1341  1.00275847 29284
EXPRESS-AT1             
1 39612U 14010A   22063.53248694  .00000063  00000+0  00000+0 0  9998
2 39612   0.0498 299.9282 0000913 166.2104 303.7840  1.00272291 29356
EXPRESS-AT2             
1 39613U 14010B   22063.54914560 -.00000297  00000+0  00000+0 0  9992
2 39613   0.0470 293.9286 0000515 206.1223 359.7285  1.00270802 29180
AMAZONAS 4A             
1 39616U 14011A   22063.50649594 -.00000267  00000+0  00000+0 0  9991
2 39616   0.0616  91.3665 0002537 249.9475 289.1819  1.00269423 29003
ASTRA 5B                
1 39617U 14011B   22063.52760274  .00000139  00000+0  00000+0 0  9990
2 39617   0.1013 296.3033 0002682  20.6933  66.6940  1.00275551 28962
IRNSS-1B                
1 39635U 14017A   22061.60272903  .00000096  00000+0  00000+0 0  9992
2 39635  28.9601 266.8823 0019697 176.3411 349.2335  1.00276216 29076
LUCH 5V                 
1 39727U 14023A   22063.39664164 -.00000284  00000+0  00000+0 0  9993
2 39727   1.2558  73.2175 0002674 316.7147   9.6973  1.00270265 28652
KAZSAT-3                
1 39728U 14023B   22063.46122972  .00000043  00000+0  00000+0 0  9990
2 39728   0.0107 154.0317 0000700 306.8432 285.8412  1.00281539 26741
EUTELSAT 3B             
1 39773U 14030A   22063.37841306  .00000004  00000+0  00000+0 0  9994
2 39773   0.0661   8.8959 0002528 198.4384  94.0654  1.00272264 28368
ASIASAT 8 (AMOS-7)      
1 40107U 14046A   22063.30523701 -.00000050  00000+0  00000+0 0  9995
2 40107   0.0155 141.7232 0001625 188.1661 298.1123  1.00271858 86440
ASIASAT 6               
1 40141U 14052A   22063.54522079 -.00000378  00000+0  00000+0 0  9996
2 40141   0.0523 320.5574 0000515 104.6211  53.2342  1.00269298 27469
OPTUS 10                
1 40146U 14054A   22063.47574914 -.00000164  00000+0  00000+0 0  9993
2 40146   0.0680 292.3336 0002019  45.7382 151.3573  1.00270679 27332
MEASAT-3B               
1 40147U 14054B   22063.46750942 -.00000258  00000+0  00000+0 0  9994
2 40147   0.0405 352.2699 0002823   3.4102  66.3080  1.00271654 27208
LUCH (OLYMP)            
1 40258U 14058A   22063.66772272  .00000018  00000+0  00000+0 0  9996
2 40258   0.0139 134.0879 0000688  27.9170 302.6331  1.00275841 27245
HIMAWARI-8              
1 40267U 14060A   22063.52549403 -.00000292  00000+0  00000+0 0  9997
2 40267   0.0258 152.7315 0000920 212.5656 126.8062  1.00268581 27069
IRNSS-1C                
1 40269U 14061A   22063.53780725 -.00000176  00000+0  00000+0 0  9996
2 40269   2.7461 133.6923 0017345   6.7883 298.4445  1.00271410 26989
INTELSAT 30 (IS-30)     
1 40271U 14062A   22063.35878895 -.00000166  00000+0  00000+0 0  9995
2 40271   0.0230 157.0612 0002387 329.1269  70.0147  1.00266408 26885
ARSAT 1                 
1 40272U 14062B   22063.50701925 -.00000275  00000+0  00000+0 0  9993
2 40272   0.0244 134.2700 0001363 196.2330 302.4630  1.00269689 26918
EXPRESS-AM6             
1 40277U 14064A   22062.81421648  .00000080  00000+0  00000+0 0  9997
2 40277   0.0430 295.9189 0000338  65.6789 146.0350  1.00271637 26966
GSAT-16                 
1 40332U 14078A   22063.53231251  .00000069  00000+0  00000+0 0  9990
2 40332   0.0891 268.3871 0004227 172.5214 328.0081  1.00272939 26401
DIRECTV 14              
1 40333U 14078B   22063.56415426 -.00000140  00000+0  00000+0 0  9993
2 40333   0.0250 108.8856 0000438 111.3890  45.8591  1.00271458 26363
YAMAL 401               
1 40345U 14082A   22063.53894108 -.00000245  00000+0  00000+0 0  9992
2 40345   0.0125 172.0886 0000222 264.1602   9.9511  1.00277480 26210
ASTRA 2G                
1 40364U 14089A   22063.52690498  .00000134  00000+0  00000+0 0  9991
2 40364   0.0079  25.2907 0003910 359.6789 355.1763  1.00268020 26265
FENGYUN 2G              
1 40367U 14090A   22063.47323681 -.00000316  00000+0  00000+0 0  9990
2 40367   1.6723  90.4603 0002290 339.7644   1.5282  1.00283978 26297
MUOS-3                  
1 40374U 15002A   22063.37483711 -.00000143  00000+0  00000+0 0  9990
2 40374   2.5369   8.5829 0051932 178.5580  94.4564  1.00271426 25889
INMARSAT 5-F2           
1 40384U 15005A   22063.51015910 -.00000301  00000+0  00000+0 0  9998
2 40384   0.0205 135.9393 0000472 147.9376   6.9831  1.00271465 25292
ABS-3A                  
1 40424U 15010A   22063.37719199 -.00000042  00000+0  00000+0 0  9995
2 40424   0.0179 121.9060 0001982 147.6382  25.3578  1.00272600 25682
EUTELSAT 115 WEST B     
1 40425U 15010B   22063.44434375 -.00000041  00000+0  00000+0 0  9993
2 40425   0.0322   6.4893 0000361 358.1245 202.6075  1.00272991 25709
EXPRESS-AM7             
1 40505U 15012A   22063.52925987  .00000135  00000+0  00000+0 0  9990
2 40505   0.0138 121.6977 0003000 207.5931  63.4497  1.00272193 25309
IRNSS-1D                
1 40547U 15018A   22063.47187032 -.00000289  00000+0  00000+0 0  9998
2 40547  28.7868 266.8913 0020369 176.4091   0.5110  1.00274441 25292
BEIDOU 17               
1 40549U 15019A   22063.07381646 -.00000164  00000+0  00000+0 0  9996
2 40549  52.0631 313.9789 0035340 189.8214 139.9290  1.00264661 25375
THOR 7                  
1 40613U 15022A   22063.30584755 -.00000024  00000+0  00000+0 0  9999
2 40613   0.0262 237.1254 0002594 108.4256 285.9360  1.00274410 25117
TURKMENALEM52E/MONACOSAT
1 40617U 15023A   22063.53170198  .00000088  00000+0  00000+0 0  9990
2 40617   0.0250 115.7582 0002301 230.4462  59.4513  1.00272483 25138
DIRECTV 15              
1 40663U 15026A   22063.56189264 -.00000117  00000+0  00000+0 0  9995
2 40663   0.0262 149.2925 0000460   5.0911 107.3228  1.00267203 24762
SKY MEXICO-1            
1 40664U 15026B   22063.50562375 -.00000250  00000+0  00000+0 0  9996
2 40664   0.0170 159.8565 0002071 195.1907 270.4427  1.00270122 24750
METEOSAT-11 (MSG-4)     
1 40732U 15034A   22063.37788973 -.00000014  00000+0  00000+0 0  9998
2 40732   0.1918 353.3362 0001705  76.6859 228.5909  1.00281380 24325
STAR ONE C4             
1 40733U 15034B   22063.50736811 -.00000280  00000+0  00000+0 0  9993
2 40733   0.0463 341.6891 0003625  25.4166 267.7555  1.00270645 24327
WGS F7 (USA 263)        
1 40746U 15036A   22063.48605941  .00000002  00000+0  00000+0 0  9996
2 40746   0.0055 180.1845 0000144  93.4536 238.5446  1.00271663 24171
INTELSAT 34 (IS-34)     
1 40874U 15039A   22063.51015910 -.00000301  00000+0  00000+0 0  9999
2 40874   0.0439 312.8117 0000804 242.8314  94.7230  1.00271657 23920
EUTELSAT 8 WEST B       
1 40875U 15039B   22063.37614538 -.00000082  00000+0  00000+0 0  9991
2 40875   0.0733  31.3294 0004746 341.7441 276.4301  1.00272188 23957
GSAT-6                  
1 40880U 15041A   22063.53780725 -.00000175  00000+0  00000+0 0  9993
2 40880   0.0959 279.0193 0000483  40.4745 118.8810  1.00269888 23908
INMARSAT 5-F3           
1 40882U 15042A   22063.38733606  .00000034  00000+0  00000+0 0  9998
2 40882   0.0185 135.2894 0000332 349.7537 356.0686  1.00272014 23866
MUOS-4                  
1 40887U 15044A   22063.53641176 -.00000107  00000+0  00000+0 0  9994
2 40887   2.5564   3.6756 0058074 358.2893  68.4189  1.00272003 23860
